0 THORAD AGENA D DEB
1 04636U 70025U   13281.19481720  .00000279  00000-0  38883-3 0  5054
2 04636 099.9644 046.8008 0034744 359.8313 119.5672 13.67012641161710
0 THORAD AGENA D DEB
1 04636U 70025U   13283.29906610  .00000292  00000-0  40484-3 0  5063
2 04636 099.9648 048.9670 0034717 354.3814 035.2197 13.67015146162000
0 THORAD AGENA D DEB
1 04636U 70025U   13285.35412279  .00000263  00000-0  37011-3 0  5076
2 04636 099.9652 051.0824 0034661 349.0921 068.7642 13.67016512162283
0 THORAD AGENA D DEB
1 04636U 70025U   13287.92671038  .00000392  00000-0  52393-3 0  5085
2 04636 099.9658 053.7307 0034608 342.4639 129.2560 13.67018585162631
0 THORAD AGENA D DEB
1 04636U 70025U   13289.97677698  .00000356  00000-0  48084-3 0  5093
2 04636 099.9661 055.8414 0034573 337.1918 138.2674 13.67020104162916
0 THORAD AGENA D DEB
1 04636U 70025U   13292.17383223  .00000404  00000-0  53815-3 0  5101
2 04636 099.9661 058.1036 0034562 331.4982 150.7137 13.67021843163216
0 THORAD AGENA D DEB
1 04636U 70025U   13294.35677453  .00000419  00000-0  55610-3 0  5116
2 04636 099.9661 060.3513 0034566 325.8720 093.6867 13.67024164163519
